OKEAN-3                 
1 21397U 91039A   25314.81294975  .00005589  00000+0  40395-3 0  9994
2 21397  82.5165  91.9407 0014757  19.6565 340.5227 15.03793208847164
COSMOS 2151             
1 21422U 91042A   25314.92836353  .00002359  00000+0  18969-3 0  9995
2 21422  82.4985 198.1514 0014194  98.7197 261.5635 14.99512430845393
SL-14 R/B               
1 21423U 91042B   25314.77233475  .00000695  00000+0  85228-4 0  9999
2 21423  82.4921 331.7049 0015484 272.2307  87.7134 14.81694515835462
ERS-1                   
1 21574U 91050A   25314.75958626  .00000586  00000+0  20250-3 0  9997
2 21574  98.7924 325.0117 0031764 193.2269 166.8088 14.39327001798621
ARIANE 40 R/B           
1 21610U 91050F   25314.39982905  .00000659  00000+0  21027-3 0  9999
2 21610  98.2213   5.9905 0004279  81.3385 278.8291 14.42770716801796
INTERCOSMOS 25          
1 21819U 91086A   25314.68356280  .00001511  00000+0  29364-3 0  9992
2 21819  82.6082  21.9522 1488470  13.4923 350.1766 12.11583893482276
SL-8 R/B                
1 21876U 92008B   25314.85155203  .00000140  00000+0  12798-3 0  9991
2 21876  82.9287 356.1656 0036081 106.1806  67.0098 13.75949000693077
SL-8 R/B                
1 21938U 92020B   25314.75728749  .00000100  00000+0  88310-4 0  9994
2 21938  82.9309 242.0646 0027635 270.2969 125.5429 13.75521054684782
USA 81                  
1 21949U 92023A   25314.61893654  .00000322  00000+0  11187-3 0  9995
2 21949  85.0112 200.0964 0002668  77.8429 282.3062 14.32309188 77741
COSMOS 2219             
1 22219U 92076A   25314.60900590  .00000219  00000+0  13969-3 0  9996
2 22219  71.0607 266.9950 0017503  14.5450 345.6173 14.14065065701549
SL-16 R/B               
1 22220U 92076B   25314.96323359  .00000054  00000+0  50632-4 0  9995
2 22220  70.9998  78.4646 0015216 275.4654 229.3039 14.16835152705012
COSMOS 2221             
1 22236U 92080A   25314.50445380  .00003734  00000+0  33387-3 0  9991
2 22236  82.5065  33.1697 0013520 228.9603 131.0451 14.95569371762979
