CCSDS_OMM_VERS = 2.0
CREATION_DATE  = 
ORIGINATOR     = 

OBJECT_NAME    = OKEAN-3
OBJECT_ID      = 1991-039A
CENTER_NAME    = EARTH
REF_FRAME      = TEME
TIME_SYSTEM    = UTC
MEAN_ELEMENT_THEORY = SGP/SGP4

EPOCH          = 2025-11-10T19:30:38.858400
MEAN_MOTION    = 15.03793208
ECCENTRICITY   = .00147574
INCLINATION    = 82.5165
RA_OF_ASC_NODE = 91.9407
ARG_OF_PERICENTER = 19.6565
MEAN_ANOMALY   = 340.5227

EPHEMERIS_TYPE = 0
CLASSIFICATION_TYPE = U
NORAD_CAT_ID   = 21397
ELEMENT_SET_NO = 999
REV_AT_EPOCH   = 84716
BSTAR          = .40394507E-3
MEAN_MOTION_DOT = .5589E-4
MEAN_MOTION_DDOT = 0

CCSDS_OMM_VERS = 2.0
CREATION_DATE  = 
ORIGINATOR     = 

OBJECT_NAME    = COSMOS 2151
OBJECT_ID      = 1991-042A
CENTER_NAME    = EARTH
REF_FRAME      = TEME
TIME_SYSTEM    = UTC
MEAN_ELEMENT_THEORY = SGP/SGP4

EPOCH          = 2025-11-10T22:16:50.608992
MEAN_MOTION    = 14.99512430
ECCENTRICITY   = .00141941
INCLINATION    = 82.4985
RA_OF_ASC_NODE = 198.1514
ARG_OF_PERICENTER = 98.7197
MEAN_ANOMALY   = 261.5635

EPHEMERIS_TYPE = 0
CLASSIFICATION_TYPE = U
NORAD_CAT_ID   = 21422
ELEMENT_SET_NO = 999
REV_AT_EPOCH   = 84539
BSTAR          = .18968666E-3
MEAN_MOTION_DOT = .2359E-4
MEAN_MOTION_DDOT = 0

CCSDS_OMM_VERS = 2.0
CREATION_DATE  = 
ORIGINATOR     = 

OBJECT_NAME    = SL-14 R/B
OBJECT_ID      = 1991-042B
CENTER_NAME    = EARTH
REF_FRAME      = TEME
TIME_SYSTEM    = UTC
MEAN_ELEMENT_THEORY = SGP/SGP4

EPOCH          = 2025-11-10T18:32:09.722400
MEAN_MOTION    = 14.81694515
ECCENTRICITY   = .00154842
INCLINATION    = 82.4921
RA_OF_ASC_NODE = 331.7049
ARG_OF_PERICENTER = 272.2307
MEAN_ANOMALY   = 87.7134

EPHEMERIS_TYPE = 0
CLASSIFICATION_TYPE = U
NORAD_CAT_ID   = 21423
ELEMENT_SET_NO = 999
REV_AT_EPOCH   = 83546
BSTAR          = .85228497E-4
MEAN_MOTION_DOT = .695E-5
MEAN_MOTION_DDOT = 0

CCSDS_OMM_VERS = 2.0
CREATION_DATE  = 
ORIGINATOR     = 

OBJECT_NAME    = ERS-1
OBJECT_ID      = 1991-050A
CENTER_NAME    = EARTH
REF_FRAME      = TEME
TIME_SYSTEM    = UTC
MEAN_ELEMENT_THEORY = SGP/SGP4

EPOCH          = 2025-11-10T18:13:48.252864
MEAN_MOTION    = 14.39327001
ECCENTRICITY   = .00317649
INCLINATION    = 98.7924
RA_OF_ASC_NODE = 325.0117
ARG_OF_PERICENTER = 193.2269
MEAN_ANOMALY   = 166.8088

EPHEMERIS_TYPE = 0
CLASSIFICATION_TYPE = U
NORAD_CAT_ID   = 21574
ELEMENT_SET_NO = 999
REV_AT_EPOCH   = 79862
BSTAR          = .20249752E-3
MEAN_MOTION_DOT = .586E-5
MEAN_MOTION_DDOT = 0

CCSDS_OMM_VERS = 2.0
CREATION_DATE  = 
ORIGINATOR     = 

OBJECT_NAME    = ARIANE 40 R/B
OBJECT_ID      = 1991-050F
CENTER_NAME    = EARTH
REF_FRAME      = TEME
TIME_SYSTEM    = UTC
MEAN_ELEMENT_THEORY = SGP/SGP4

EPOCH          = 2025-11-10T09:35:45.229920
MEAN_MOTION    = 14.42770716
ECCENTRICITY   = .00042791
INCLINATION    = 98.2213
RA_OF_ASC_NODE = 5.9905
ARG_OF_PERICENTER = 81.3385
MEAN_ANOMALY   = 278.8291

EPHEMERIS_TYPE = 0
CLASSIFICATION_TYPE = U
NORAD_CAT_ID   = 21610
ELEMENT_SET_NO = 999
REV_AT_EPOCH   = 80179
BSTAR          = .21027374E-3
MEAN_MOTION_DOT = .659E-5
MEAN_MOTION_DDOT = 0

CCSDS_OMM_VERS = 2.0
CREATION_DATE  = 
ORIGINATOR     = 

OBJECT_NAME    = INTERCOSMOS 25
OBJECT_ID      = 1991-086A
CENTER_NAME    = EARTH
REF_FRAME      = TEME
TIME_SYSTEM    = UTC
MEAN_ELEMENT_THEORY = SGP/SGP4

EPOCH          = 2025-11-10T16:24:19.825920
MEAN_MOTION    = 12.11583893
ECCENTRICITY   = .14884705
INCLINATION    = 82.6082
RA_OF_ASC_NODE = 21.9522
ARG_OF_PERICENTER = 13.4923
MEAN_ANOMALY   = 350.1766

EPHEMERIS_TYPE = 0
CLASSIFICATION_TYPE = U
NORAD_CAT_ID   = 21819
ELEMENT_SET_NO = 999
REV_AT_EPOCH   = 48227
BSTAR          = .29363741E-3
MEAN_MOTION_DOT = .1511E-4
MEAN_MOTION_DDOT = 0

CCSDS_OMM_VERS = 2.0
CREATION_DATE  = 
ORIGINATOR     = 

OBJECT_NAME    = SL-8 R/B
OBJECT_ID      = 1992-008B
CENTER_NAME    = EARTH
REF_FRAME      = TEME
TIME_SYSTEM    = UTC
MEAN_ELEMENT_THEORY = SGP/SGP4

EPOCH          = 2025-11-10T20:26:14.095392
MEAN_MOTION    = 13.75949000
ECCENTRICITY   = .00360817
INCLINATION    = 82.9287
RA_OF_ASC_NODE = 356.1656
ARG_OF_PERICENTER = 106.1806
MEAN_ANOMALY   = 67.0098

EPHEMERIS_TYPE = 0
CLASSIFICATION_TYPE = U
NORAD_CAT_ID   = 21876
ELEMENT_SET_NO = 999
REV_AT_EPOCH   = 69307
BSTAR          = .12797563E-3
MEAN_MOTION_DOT = .14E-5
MEAN_MOTION_DDOT = 0

CCSDS_OMM_VERS = 2.0
CREATION_DATE  = 
ORIGINATOR     = 

OBJECT_NAME    = SL-8 R/B
OBJECT_ID      = 1992-020B
CENTER_NAME    = EARTH
REF_FRAME      = TEME
TIME_SYSTEM    = UTC
MEAN_ELEMENT_THEORY = SGP/SGP4

EPOCH          = 2025-11-10T18:10:29.639136
MEAN_MOTION    = 13.75521054
ECCENTRICITY   = .00276353
INCLINATION    = 82.9309
RA_OF_ASC_NODE = 242.0646
ARG_OF_PERICENTER = 270.2969
MEAN_ANOMALY   = 125.5429

EPHEMERIS_TYPE = 0
CLASSIFICATION_TYPE = U
NORAD_CAT_ID   = 21938
ELEMENT_SET_NO = 999
REV_AT_EPOCH   = 68478
BSTAR          = .88309593E-4
MEAN_MOTION_DOT = .1E-5
MEAN_MOTION_DDOT = 0

CCSDS_OMM_VERS = 2.0
CREATION_DATE  = 
ORIGINATOR     = 

OBJECT_NAME    = USA 81
OBJECT_ID      = 1992-023A
CENTER_NAME    = EARTH
REF_FRAME      = TEME
TIME_SYSTEM    = UTC
MEAN_ELEMENT_THEORY = SGP/SGP4

EPOCH          = 2025-11-10T14:51:16.117056
MEAN_MOTION    = 14.32309188
ECCENTRICITY   = .0002668
INCLINATION    = 85.0112
RA_OF_ASC_NODE = 200.0964
ARG_OF_PERICENTER = 77.8429
MEAN_ANOMALY   = 282.3062

EPHEMERIS_TYPE = 0
CLASSIFICATION_TYPE = U
NORAD_CAT_ID   = 21949
ELEMENT_SET_NO = 999
REV_AT_EPOCH   = 7774
BSTAR          = .11187035E-3
MEAN_MOTION_DOT = .322E-5
MEAN_MOTION_DDOT = 0

CCSDS_OMM_VERS = 2.0
CREATION_DATE  = 
ORIGINATOR     = 

OBJECT_NAME    = COSMOS 2219
OBJECT_ID      = 1992-076A
CENTER_NAME    = EARTH
REF_FRAME      = TEME
TIME_SYSTEM    = UTC
MEAN_ELEMENT_THEORY = SGP/SGP4

EPOCH          = 2025-11-10T14:36:58.109760
MEAN_MOTION    = 14.14065065
ECCENTRICITY   = .00175032
INCLINATION    = 71.0607
RA_OF_ASC_NODE = 266.9950
ARG_OF_PERICENTER = 14.5450
MEAN_ANOMALY   = 345.6173

EPHEMERIS_TYPE = 0
CLASSIFICATION_TYPE = U
NORAD_CAT_ID   = 22219
ELEMENT_SET_NO = 999
REV_AT_EPOCH   = 70154
BSTAR          = .13968663E-3
MEAN_MOTION_DOT = .219E-5
MEAN_MOTION_DDOT = 0

CCSDS_OMM_VERS = 2.0
CREATION_DATE  = 
ORIGINATOR     = 

OBJECT_NAME    = SL-16 R/B
OBJECT_ID      = 1992-076B
CENTER_NAME    = EARTH
REF_FRAME      = TEME
TIME_SYSTEM    = UTC
MEAN_ELEMENT_THEORY = SGP/SGP4

EPOCH          = 2025-11-10T23:07:03.382176
MEAN_MOTION    = 14.16835152
ECCENTRICITY   = .00152164
INCLINATION    = 70.9998
RA_OF_ASC_NODE = 78.4646
ARG_OF_PERICENTER = 275.4654
MEAN_ANOMALY   = 229.3039

EPHEMERIS_TYPE = 0
CLASSIFICATION_TYPE = U
NORAD_CAT_ID   = 22220
ELEMENT_SET_NO = 999
REV_AT_EPOCH   = 70501
BSTAR          = .50632303E-4
MEAN_MOTION_DOT = .54E-6
MEAN_MOTION_DDOT = 0

CCSDS_OMM_VERS = 2.0
CREATION_DATE  = 
ORIGINATOR     = 

OBJECT_NAME    = COSMOS 2221
OBJECT_ID      = 1992-080A
CENTER_NAME    = EARTH
REF_FRAME      = TEME
TIME_SYSTEM    = UTC
MEAN_ELEMENT_THEORY = SGP/SGP4

EPOCH          = 2025-11-10T12:06:24.808320
MEAN_MOTION    = 14.95569371
ECCENTRICITY   = .00135209
INCLINATION    = 82.5065
RA_OF_ASC_NODE = 33.1697
ARG_OF_PERICENTER = 228.9603
MEAN_ANOMALY   = 131.0451

EPHEMERIS_TYPE = 0
CLASSIFICATION_TYPE = U
NORAD_CAT_ID   = 22236
ELEMENT_SET_NO = 999
REV_AT_EPOCH   = 76297
BSTAR          = .33386565E-3
MEAN_MOTION_DOT = .3734E-4
MEAN_MOTION_DDOT = 0

